CCSDS_OMM_VERS = 2.0
CREATION_DATE  = 
ORIGINATOR     = 

OBJECT_NAME    = HULIANWANG DIGUI-148
OBJECT_ID      = 2026-013C
CENTER_NAME    = EARTH
REF_FRAME      = TEME
TIME_SYSTEM    = UTC
MEAN_ELEMENT_THEORY = SGP/SGP4

EPOCH          = 2026-02-05T16:56:18.183264
MEAN_MOTION    = 13.87015771
ECCENTRICITY   = .0000959
INCLINATION    = 50.0098
RA_OF_ASC_NODE = 115.3976
ARG_OF_PERICENTER = 197.4824
MEAN_ANOMALY   = 162.6040

EPHEMERIS_TYPE = 0
CLASSIFICATION_TYPE = U
NORAD_CAT_ID   = 67524
ELEMENT_SET_NO = 999
REV_AT_EPOCH   = 243
BSTAR          = .16716E-3
MEAN_MOTION_DOT = .52E-6
MEAN_MOTION_DDOT = 0

CCSDS_OMM_VERS = 2.0
CREATION_DATE  = 
ORIGINATOR     = 

OBJECT_NAME    = HULIANWANG DIGUI-149
OBJECT_ID      = 2026-013D
CENTER_NAME    = EARTH
REF_FRAME      = TEME
TIME_SYSTEM    = UTC
MEAN_ELEMENT_THEORY = SGP/SGP4

EPOCH          = 2026-02-05T23:48:30.566880
MEAN_MOTION    = 13.87340887
ECCENTRICITY   = .0004743
INCLINATION    = 49.9875
RA_OF_ASC_NODE = 114.2379
ARG_OF_PERICENTER = 103.8839
MEAN_ANOMALY   = 256.2585

EPHEMERIS_TYPE = 0
CLASSIFICATION_TYPE = U
NORAD_CAT_ID   = 67525
ELEMENT_SET_NO = 999
REV_AT_EPOCH   = 247
BSTAR          = .15511E-3
MEAN_MOTION_DOT = .38E-6
MEAN_MOTION_DDOT = 0

CCSDS_OMM_VERS = 2.0
CREATION_DATE  = 
ORIGINATOR     = 

OBJECT_NAME    = HULIANWANG DIGUI-150
OBJECT_ID      = 2026-013E
CENTER_NAME    = EARTH
REF_FRAME      = TEME
TIME_SYSTEM    = UTC
MEAN_ELEMENT_THEORY = SGP/SGP4

EPOCH          = 2026-02-06T03:08:06.377568
MEAN_MOTION    = 13.87629770
ECCENTRICITY   = .000399
INCLINATION    = 50.0010
RA_OF_ASC_NODE = 113.6560
ARG_OF_PERICENTER = 12.5864
MEAN_ANOMALY   = 347.5133

EPHEMERIS_TYPE = 0
CLASSIFICATION_TYPE = U
NORAD_CAT_ID   = 67526
ELEMENT_SET_NO = 999
REV_AT_EPOCH   = 251
BSTAR          = .15525E-3
MEAN_MOTION_DOT = .39E-6
MEAN_MOTION_DDOT = 0

CCSDS_OMM_VERS = 2.0
CREATION_DATE  = 
ORIGINATOR     = 

OBJECT_NAME    = HULIANWANG DIGUI-151
OBJECT_ID      = 2026-013F
CENTER_NAME    = EARTH
REF_FRAME      = TEME
TIME_SYSTEM    = UTC
MEAN_ELEMENT_THEORY = SGP/SGP4

EPOCH          = 2026-02-06T04:55:43.262112
MEAN_MOTION    = 13.87466948
ECCENTRICITY   = .0000303
INCLINATION    = 50.0093
RA_OF_ASC_NODE = 113.3873
ARG_OF_PERICENTER = 77.4490
MEAN_ANOMALY   = 282.6441

EPHEMERIS_TYPE = 0
CLASSIFICATION_TYPE = U
NORAD_CAT_ID   = 67527
ELEMENT_SET_NO = 999
REV_AT_EPOCH   = 250
BSTAR          = .13835E-3
MEAN_MOTION_DOT = .19E-6
MEAN_MOTION_DDOT = 0

CCSDS_OMM_VERS = 2.0
CREATION_DATE  = 
ORIGINATOR     = 

OBJECT_NAME    = HULIANWANG DIGUI-152
OBJECT_ID      = 2026-013G
CENTER_NAME    = EARTH
REF_FRAME      = TEME
TIME_SYSTEM    = UTC
MEAN_ELEMENT_THEORY = SGP/SGP4

EPOCH          = 2026-02-06T04:50:05.075232
MEAN_MOTION    = 13.87865609
ECCENTRICITY   = .0000755
INCLINATION    = 50.0046
RA_OF_ASC_NODE = 113.3476
ARG_OF_PERICENTER = 20.0472
MEAN_ANOMALY   = 340.0455

EPHEMERIS_TYPE = 0
CLASSIFICATION_TYPE = U
NORAD_CAT_ID   = 67528
ELEMENT_SET_NO = 999
REV_AT_EPOCH   = 250
BSTAR          = .16901E-3
MEAN_MOTION_DOT = .57E-6
MEAN_MOTION_DDOT = 0

CCSDS_OMM_VERS = 2.0
CREATION_DATE  = 
ORIGINATOR     = 

OBJECT_NAME    = HULIANWANG DIGUI-153
OBJECT_ID      = 2026-013H
CENTER_NAME    = EARTH
REF_FRAME      = TEME
TIME_SYSTEM    = UTC
MEAN_ELEMENT_THEORY = SGP/SGP4

EPOCH          = 2026-02-05T13:11:10.773600
MEAN_MOTION    = 13.88721006
ECCENTRICITY   = .00011214
INCLINATION    = 49.9997
RA_OF_ASC_NODE = 115.8933
ARG_OF_PERICENTER = 186.0894
MEAN_ANOMALY   = 173.9990

EPHEMERIS_TYPE = 0
CLASSIFICATION_TYPE = U
NORAD_CAT_ID   = 67529
ELEMENT_SET_NO = 999
REV_AT_EPOCH   = 240
BSTAR          = .46036512E-4
MEAN_MOTION_DOT = -.9E-6
MEAN_MOTION_DDOT = 0

CCSDS_OMM_VERS = 2.0
CREATION_DATE  = 
ORIGINATOR     = 

OBJECT_NAME    = HULIANWANG DIGUI-154
OBJECT_ID      = 2026-013J
CENTER_NAME    = EARTH
REF_FRAME      = TEME
TIME_SYSTEM    = UTC
MEAN_ELEMENT_THEORY = SGP/SGP4

EPOCH          = 2026-02-05T18:19:05.676096
MEAN_MOTION    = 13.88619990
ECCENTRICITY   = .000108
INCLINATION    = 50.0008
RA_OF_ASC_NODE = 115.0483
ARG_OF_PERICENTER = 186.0199
MEAN_ANOMALY   = 174.0686

EPHEMERIS_TYPE = 0
CLASSIFICATION_TYPE = U
NORAD_CAT_ID   = 67530
ELEMENT_SET_NO = 999
REV_AT_EPOCH   = 243
BSTAR          = .23786E-3
MEAN_MOTION_DOT = .142E-5
MEAN_MOTION_DDOT = 0

CCSDS_OMM_VERS = 2.0
CREATION_DATE  = 
ORIGINATOR     = 

OBJECT_NAME    = CZ-12 R/B
OBJECT_ID      = 2026-013K
CENTER_NAME    = EARTH
REF_FRAME      = TEME
TIME_SYSTEM    = UTC
MEAN_ELEMENT_THEORY = SGP/SGP4

EPOCH          = 2026-02-06T05:51:22.547808
MEAN_MOTION    = 14.14457780
ECCENTRICITY   = .006873
INCLINATION    = 49.9920
RA_OF_ASC_NODE = 110.9039
ARG_OF_PERICENTER = 189.5936
MEAN_ANOMALY   = 170.3664

EPHEMERIS_TYPE = 0
CLASSIFICATION_TYPE = U
NORAD_CAT_ID   = 67531
ELEMENT_SET_NO = 999
REV_AT_EPOCH   = 253
BSTAR          = .22241E-3
MEAN_MOTION_DOT = .283E-5
MEAN_MOTION_DDOT = 0

CCSDS_OMM_VERS = 2.0
CREATION_DATE  = 
ORIGINATOR     = 

OBJECT_NAME    = STARLINK-36587
OBJECT_ID      = 2026-014A
CENTER_NAME    = EARTH
REF_FRAME      = TEME
TIME_SYSTEM    = UTC
MEAN_ELEMENT_THEORY = SGP/SGP4

EPOCH          = 2026-02-06T04:00:01.999584
MEAN_MOTION    = 15.80719180
ECCENTRICITY   = .000146
INCLINATION    = 97.2836
RA_OF_ASC_NODE = 280.4664
ARG_OF_PERICENTER = 70.2371
MEAN_ANOMALY   = 13.9980

EPHEMERIS_TYPE = 0
CLASSIFICATION_TYPE = U
NORAD_CAT_ID   = 67532
ELEMENT_SET_NO = 999
REV_AT_EPOCH   = 362
BSTAR          = .99003E-3
MEAN_MOTION_DOT = .192895E-2
MEAN_MOTION_DDOT = 0

CCSDS_OMM_VERS = 2.0
CREATION_DATE  = 
ORIGINATOR     = 

OBJECT_NAME    = STARLINK-36417
OBJECT_ID      = 2026-014B
CENTER_NAME    = EARTH
REF_FRAME      = TEME
TIME_SYSTEM    = UTC
MEAN_ELEMENT_THEORY = SGP/SGP4

EPOCH          = 2026-02-06T04:00:01.999584
MEAN_MOTION    = 15.75218608
ECCENTRICITY   = .000085
INCLINATION    = 97.2846
RA_OF_ASC_NODE = 280.4631
ARG_OF_PERICENTER = 94.9285
MEAN_ANOMALY   = 340.7592

EPHEMERIS_TYPE = 0
CLASSIFICATION_TYPE = U
NORAD_CAT_ID   = 67533
ELEMENT_SET_NO = 999
REV_AT_EPOCH   = 362
BSTAR          = -.58627E-3
MEAN_MOTION_DOT = -.86796E-3
MEAN_MOTION_DDOT = 0

CCSDS_OMM_VERS = 2.0
CREATION_DATE  = 
ORIGINATOR     = 

OBJECT_NAME    = STARLINK-36576
OBJECT_ID      = 2026-014C
CENTER_NAME    = EARTH
REF_FRAME      = TEME
TIME_SYSTEM    = UTC
MEAN_ELEMENT_THEORY = SGP/SGP4

EPOCH          = 2026-02-06T04:00:01.999584
MEAN_MOTION    = 15.80740522
ECCENTRICITY   = .0001047
INCLINATION    = 97.2839
RA_OF_ASC_NODE = 280.4694
ARG_OF_PERICENTER = 89.0850
MEAN_ANOMALY   = 3.0351

EPHEMERIS_TYPE = 0
CLASSIFICATION_TYPE = U
NORAD_CAT_ID   = 67534
ELEMENT_SET_NO = 999
REV_AT_EPOCH   = 362
BSTAR          = .93373E-3
MEAN_MOTION_DOT = .18186E-2
MEAN_MOTION_DDOT = 0

CCSDS_OMM_VERS = 2.0
CREATION_DATE  = 
ORIGINATOR     = 

OBJECT_NAME    = STARLINK-36574
OBJECT_ID      = 2026-014D
CENTER_NAME    = EARTH
REF_FRAME      = TEME
TIME_SYSTEM    = UTC
MEAN_ELEMENT_THEORY = SGP/SGP4

EPOCH          = 2026-02-06T04:00:01.999584
MEAN_MOTION    = 15.80712319
ECCENTRICITY   = .0001549
INCLINATION    = 97.2838
RA_OF_ASC_NODE = 280.4725
ARG_OF_PERICENTER = 117.1050
MEAN_ANOMALY   = 342.3160

EPHEMERIS_TYPE = 0
CLASSIFICATION_TYPE = U
NORAD_CAT_ID   = 67535
ELEMENT_SET_NO = 999
REV_AT_EPOCH   = 362
BSTAR          = .10475E-2
MEAN_MOTION_DOT = .204302E-2
MEAN_MOTION_DDOT = 0

