HULIANWANG DIGUI-148    
1 67524U 26013C   26036.70576601  .00000052  00000+0  16716-3 0  9995
2 67524  50.0098 115.3976 0000959 197.4824 162.6040 13.87015771  2436
HULIANWANG DIGUI-149    
1 67525U 26013D   26036.99202045  .00000038  00000+0  15511-3 0  9991
2 67525  49.9875 114.2379 0004743 103.8839 256.2585 13.87340887  2471
HULIANWANG DIGUI-150    
1 67526U 26013E   26037.13062937  .00000039  00000+0  15525-3 0  9999
2 67526  50.0010 113.6560 0003990  12.5864 347.5133 13.87629770  2517
HULIANWANG DIGUI-151    
1 67527U 26013F   26037.20536183  .00000019  00000+0  13835-3 0  9997
2 67527  50.0093 113.3873 0000303  77.4490 282.6441 13.87466948  2509
HULIANWANG DIGUI-152    
1 67528U 26013G   26037.20144763  .00000057  00000+0  16901-3 0  9996
2 67528  50.0046 113.3476 0000755  20.0472 340.0455 13.87865609  2503
HULIANWANG DIGUI-153    
1 67529U 26013H   26036.54943025 -.00000090  00000+0  46037-4 0  9993
2 67529  49.9997 115.8933 0001121 186.0894 173.9990 13.88721006  2409
HULIANWANG DIGUI-154    
1 67530U 26013J   26036.76326014  .00000142  00000+0  23786-3 0  9994
2 67530  50.0008 115.0483 0001080 186.0199 174.0686 13.88619990  2436
CZ-12 R/B               
1 67531U 26013K   26037.24401097  .00000283  00000+0  22241-3 0  9995
2 67531  49.9920 110.9039 0068730 189.5936 170.3664 14.14457780  2533
STARLINK-36587          
1 67532U 26014A   26037.16668981  .00192895  00000+0  99003-3 0  9996
2 67532  97.2836 280.4664 0001460  70.2371  13.9980 15.80719180  3622
STARLINK-36417          
1 67533U 26014B   26037.16668981 -.00086796  00000+0 -58627-3 0  9998
2 67533  97.2846 280.4631 0000850  94.9285 340.7592 15.75218608  3620
STARLINK-36576          
1 67534U 26014C   26037.16668981  .00181860  00000+0  93373-3 0  9992
2 67534  97.2839 280.4694 0001047  89.0850   3.0351 15.80740522  3627
STARLINK-36574          
1 67535U 26014D   26037.16668981  .00204302  00000+0  10475-2 0  9991
2 67535  97.2838 280.4725 0001549 117.1050 342.3160 15.80712319  3624
